AETHER-2                
1 58299U 23174AV  26068.71793741  .00008341  00000+0  26166-3 0  9990
2 58299  97.3931 151.9008 0008630 139.5247 220.6639 15.33264165129982
STARLINK-35379          
1 66084U 25235AC  26068.72290088  .00025772  00000+0  87927-3 0  9997
2 66084  53.1567 245.3149 0000947  82.2001 277.9107 15.30199465 22925
